STARLINK-4707           
1 53721U 22107X   26079.60425508  .00000547  00000+0  52429-4 0  9995
2 53721  53.2177 204.9580 0000821 104.4025 255.7058 15.08839907196064
STARLINK-4700           
1 53722U 22107Y   26079.81034465  .00000455  00000+0  46685-4 0  9992
2 53722  53.2161 204.1098 0001060  85.1222 274.9891 15.08839896196081
STARLINK-4705           
1 53723U 22107Z   26080.04951487  .00000161  00000+0  28215-4 0  9995
2 53723  53.2152 202.7688 0000907  99.6945 260.4150 15.08841103196275
STARLINK-4663           
1 53724U 22107AA  26079.73305627  .00000360  00000+0  40674-4 0  9993
2 53724  53.2164 204.3427 0001162  85.1748 274.9377 15.08837968196087
STARLINK-4697           
1 53726U 22107AC  26079.60794482  .00000354  00000+0  40322-4 0  9995
2 53726  53.2223 204.9820 0000149 132.5391 227.5614 15.08839326196069
STARLINK-4701           
1 53727U 22107AD  26079.75149785 -.00002211  00000+0 -12090-3 0  9998
2 53727  53.2148 204.4543 0000882 104.1592 255.9499 15.08831676196229
STARLINK-4640           
1 53728U 22107AE  26080.27771291  .00000901  00000+0  74703-4 0  9993
2 53728  53.2162 202.0540 0001113  85.1389 274.9730 15.08840471196308
STARLINK-4651           
1 53729U 22107AF  26079.82878666 -.00000649  00000+0 -22670-4 0  9994
2 53729  53.2138 204.2241 0001220  82.4706 277.6425 15.08831489196261
STARLINK-4641           
1 53730U 22107AG  26079.82139836  .00000053  00000+0  21424-4 0  9998
2 53730  53.2154 204.1810 0001197  90.5070 269.6059 15.08842206196239
STARLINK-4636           
1 53731U 22107AH  26079.60565708  .00031260  00000+0  17925-2 0  9999
2 53731  53.2130 204.2678 0004095 182.6606 177.4366 15.12330906196247
STARLINK-4661           
1 53732U 22107AJ  26079.62732362 -.00000097  00000+0  11974-4 0  9999
2 53732  53.2132 205.0986 0001037  88.2435 271.8676 15.08838673196203
STARLINK-4574           
1 53733U 22107AK  26079.83982465  .00000729  00000+0  63873-4 0  9990
2 53733  53.2156 204.2944 0001335  76.3693 283.7448 15.08839295196266
STARLINK-4616           
1 53734U 22107AL  26079.62636667  .00002182  00000+0  15516-3 0  9993
2 53734  53.2150 205.0960 0001505  87.0037 273.1127 15.08831876196239
STARLINK-4618           
1 53735U 22107AM  26079.80205862  .00000394  00000+0  42818-4 0  9992
2 53735  53.2165 214.0484 0000982  87.8287 272.2818 15.08835892196127
STARLINK-4652           
1 53736U 22107AN  26080.03486296  .00000867  00000+0  72537-4 0  9998
2 53736  53.2162 203.3792 0001038  84.1890 275.9221 15.08837949196292
STARLINK-4662           
1 53738U 22107AQ  26080.06332814 -.00000041  00000+0  15534-4 0  9998
2 53738  53.2162 212.8358 0001150  80.5101 279.6021 15.08843575196164
STARLINK-4607           
1 53740U 22107AS  26079.80943297  .00000283  00000+0  35896-4 0  9994
2 53740  53.2178 214.0962 0001244  71.6619 288.4508 15.08834292196274
STARLINK-4637           
1 53742U 22107AU  26078.75327261  .00000096  00000+0  24107-4 0  9991
2 53742  53.2138 218.8759 0001244  86.1779 273.9355 15.08837472196111
STARLINK-4645           
1 53743U 22107AV  26080.09279992 -.00006000  00000+0 -35891-3 0  9993
2 53743  53.2151 213.0174 0001043  93.4893 266.6218 15.08871883196313
STARLINK-4670           
1 53744U 22107AW  26079.78363852 -.00000372  00000+0 -53086-5 0  9991
2 53744  53.2147 213.9402 0001388  88.7755 271.3396 15.08834393196278
STARLINK-4656           
1 53745U 22107AX  26080.09649225  .00000563  00000+0  53441-4 0  9993
2 53745  53.2168 213.0442 0001383  89.4749 270.6402 15.08842634196315
STARLINK-4589           
1 53746U 22107AY  26079.75793506 -.00000372  00000+0 -52938-5 0  9998
2 53746  53.2158 214.4843 0001340  76.0748 284.0393 15.08835601196267
STARLINK-4612           
1 53750U 22107BC  26079.83890183  .00001193  00000+0  93010-4 0  9996
2 53750  53.2157 214.2777 0001349  81.5651 278.5494 15.08843247196285
SHERPA-LTC2             
1 53754U 22107BG  26080.15247645  .00002819  00000+0  15603-3 0  9993
2 53754  53.2345 232.7197 0398356 340.3365  18.2612 14.68604032189605
CENTISPACE-1 S3         
1 53757U 22108A   26080.24257870  .00000398  00000+0  11850-3 0  9998
2 53757  53.5328  58.8884 0010772 107.8405 252.3746 14.61144291188670
CENTISPACE-1 S4         
1 53758U 22108B   26080.19876487  .00000541  00000+0  14542-3 0  9995
2 53758  53.5303  56.9975 0010346  96.3458 263.8696 14.61796849188696
YAOGAN-35 05A           
1 53760U 22109A   26079.95954714  .00000074  00000+0  46253-5 0  9998
2 53760  35.0056 173.7408 0007758 276.0874  83.8956 15.23010696197158
YAOGAN-35 05B           
1 53761U 22109B   26080.27038203  .00024252  00000+0  69164-3 0  9990
2 53761  34.9774 154.1754 0006461  96.2678 263.8777 15.35104528197337
YAOGAN-35 05C           
1 53763U 22109D   26080.25731545  .00010270  00000+0  43780-3 0  9990
2 53763  34.9908 189.9323 0003477 195.2203 164.8407 15.22172605196969
