OBJECT_NAME,OBJECT_ID,EPOCH,MEAN_MOTION,ECCENTRICITY,INCLINATION,RA_OF_ASC_NODE,ARG_OF_PERICENTER,MEAN_ANOMALY,EPHEMERIS_TYPE,CLASSIFICATION_TYPE,NORAD_CAT_ID,ELEMENT_SET_NO,REV_AT_EPOCH,BSTAR,MEAN_MOTION_DOT,MEAN_MOTION_DDOT,OBJECT_TYPE
STARLINK-4707,2022-107X,2026-03-20T14:30:07.638912,15.08839907,.0000821,53.2177,204.9580,104.4025,255.7058,0,U,53721,999,19606,.52429E-4,.547E-5,0,Active
STARLINK-4700,2022-107Y,2026-03-20T19:26:53.777760,15.08839896,.00010604,53.2161,204.1098,85.1222,274.9891,0,U,53722,999,19608,.46684809E-4,.455E-5,0,Active
STARLINK-4705,2022-107Z,2026-03-21T01:11:18.084768,15.08841103,.00009076,53.2152,202.7688,99.6945,260.4150,0,U,53723,999,19627,.28215406E-4,.161E-5,0,Active
STARLINK-4663,2022-107AA,2026-03-20T17:35:36.061728,15.08837968,.00011629,53.2164,204.3427,85.1748,274.9377,0,U,53724,999,19608,.40673765E-4,.36E-5,0,Active
STARLINK-4697,2022-107AC,2026-03-20T14:35:26.432448,15.08839326,.0000149,53.2223,204.9820,132.5391,227.5614,0,U,53726,999,19606,.40322E-4,.354E-5,0,Active
STARLINK-4701,2022-107AD,2026-03-20T18:02:09.414240,15.08831676,.00008824,53.2148,204.4543,104.1592,255.9499,0,U,53727,999,19622,-.12089899E-3,-.2211E-4,0,Active
STARLINK-4640,2022-107AE,2026-03-21T06:39:54.395424,15.08840471,.00011139,53.2162,202.0540,85.1389,274.9730,0,U,53728,999,19630,.74703351E-4,.901E-5,0,Active
STARLINK-4651,2022-107AF,2026-03-20T19:53:27.167424,15.08831489,.00012208,53.2138,204.2241,82.4706,277.6425,0,U,53729,999,19626,-.22669791E-4,-.649E-5,0,Active
STARLINK-4641,2022-107AG,2026-03-20T19:42:48.818304,15.08842206,.00011977,53.2154,204.1810,90.5070,269.6059,0,U,53730,999,19623,.2142359E-4,.53E-6,0,Active
STARLINK-4636,2022-107AH,2026-03-20T14:32:08.771712,15.12330906,.0004095,53.2130,204.2678,182.6606,177.4366,0,U,53731,999,19624,.17925E-2,.3126E-3,0,Active
STARLINK-4661,2022-107AJ,2026-03-20T15:03:20.760768,15.08838673,.0001037,53.2132,205.0986,88.2435,271.8676,0,U,53732,999,19620,.11974E-4,-.97E-6,0,Active
STARLINK-4574,2022-107AK,2026-03-20T20:09:20.849760,15.08839295,.00013356,53.2156,204.2944,76.3693,283.7448,0,U,53733,999,19626,.63872783E-4,.729E-5,0,Active
STARLINK-4616,2022-107AL,2026-03-20T15:01:58.080288,15.08831876,.0001505,53.2150,205.0960,87.0037,273.1127,0,U,53734,999,19623,.15516E-3,.2182E-4,0,Active
STARLINK-4618,2022-107AM,2026-03-20T19:14:57.864768,15.08835892,.00009822,53.2165,214.0484,87.8287,272.2818,0,U,53735,999,19612,.42818228E-4,.394E-5,0,Active
STARLINK-4652,2022-107AN,2026-03-21T00:50:12.159744,15.08837949,.00010384,53.2162,203.3792,84.1890,275.9221,0,U,53736,999,19629,.72537463E-4,.867E-5,0,Active
STARLINK-4662,2022-107AQ,2026-03-21T01:31:11.551296,15.08843575,.00011507,53.2162,212.8358,80.5101,279.6021,0,U,53738,999,19616,.15534411E-4,-.41E-6,0,Active
STARLINK-4607,2022-107AS,2026-03-20T19:25:35.008608,15.08834292,.00012443,53.2178,214.0962,71.6619,288.4508,0,U,53740,999,19627,.35895521E-4,.283E-5,0,Active
STARLINK-4637,2022-107AU,2026-03-19T18:04:42.753504,15.08837472,.00012449,53.2138,218.8759,86.1779,273.9355,0,U,53742,999,19611,.24106689E-4,.96E-6,0,Active
STARLINK-4645,2022-107AV,2026-03-21T02:13:37.913088,15.08871883,.00010431,53.2151,213.0174,93.4893,266.6218,0,U,53743,999,19631,-.35890871E-3,-.6E-4,0,Active
STARLINK-4670,2022-107AW,2026-03-20T18:48:26.368128,15.08834393,.0001388,53.2147,213.9402,88.7755,271.3396,0,U,53744,999,19627,-.53086E-5,-.372E-5,0,Active
STARLINK-4656,2022-107AX,2026-03-21T02:18:56.930400,15.08842634,.00013833,53.2168,213.0442,89.4749,270.6402,0,U,53745,999,19631,.53440942E-4,.563E-5,0,Active
STARLINK-4589,2022-107AY,2026-03-20T18:11:25.589184,15.08835601,.00013408,53.2158,214.4843,76.0748,284.0393,0,U,53746,999,19626,-.5293801E-5,-.372E-5,0,Active
STARLINK-4612,2022-107BC,2026-03-20T20:08:01.118112,15.08843247,.0001349,53.2157,214.2777,81.5651,278.5494,0,U,53750,999,19628,.93010142E-4,.1193E-4,0,Active
SHERPA-LTC2,2022-107BG,2026-03-21T03:39:33.965280,14.68604032,.03983569,53.2345,232.7197,340.3365,18.2612,0,U,53754,999,18960,.15602609E-3,.2819E-4,0,Active
CENTISPACE-1 S3,2022-108A,2026-03-21T05:49:18.799680,14.61144291,.00107722,53.5328,58.8884,107.8405,252.3746,0,U,53757,999,18867,.11849528E-3,.398E-5,0,Active
CENTISPACE-1 S4,2022-108B,2026-03-21T04:46:13.284768,14.61796849,.00103469,53.5303,56.9975,96.3458,263.8696,0,U,53758,999,18869,.14541519E-3,.541E-5,0,Active
YAOGAN-35 05A,2022-109A,2026-03-20T23:01:44.872896,15.23010696,.00077587,35.0056,173.7408,276.0874,83.8956,0,U,53760,999,19715,.4625335E-5,.74E-6,0,Active
YAOGAN-35 05B,2022-109B,2026-03-21T06:29:21.007392,15.35104528,.00064617,34.9774,154.1754,96.2678,263.8777,0,U,53761,999,19733,.69164043E-3,.24252E-3,0,Active
YAOGAN-35 05C,2022-109D,2026-03-21T06:10:32.054880,15.22172605,.00034777,34.9908,189.9323,195.2203,164.8407,0,U,53763,999,19696,.43779902E-3,.1027E-3,0,Active
